[{"OBJECT_NAME":"STARLINK-32660","OBJECT_ID":"2024-229P","EPOCH":"2026-03-09T19:27:55.803456","MEAN_MOTION":15.27574209,"ECCENTRICITY":0.00016941,"INCLINATION":42.998,"RA_OF_ASC_NODE":255.8344,"ARG_OF_PERICENTER":268.9624,"MEAN_ANOMALY":91.1033,"EPHEMERIS_TYPE":0,"CLASSIFICATION_TYPE":"U","NORAD_CAT_ID":62205,"ELEMENT_SET_NO":999,"REV_AT_EPOCH":7074,"BSTAR":0.00077437549,"MEAN_MOTION_DOT":0.00021105,"MEAN_MOTION_DDOT":0},{"OBJECT_NAME":"GEOSCAN 2 (RS92S2)","OBJECT_ID":"2025-155Q","EPOCH":"2026-03-09T23:01:48.939744","MEAN_MOTION":15.28709337,"ECCENTRICITY":0.00085277,"INCLINATION":97.4463,"RA_OF_ASC_NODE":37.5259,"ARG_OF_PERICENTER":140.9505,"MEAN_ANOMALY":219.2352,"EPHEMERIS_TYPE":0,"CLASSIFICATION_TYPE":"U","NORAD_CAT_ID":64890,"ELEMENT_SET_NO":999,"REV_AT_EPOCH":6561,"BSTAR":0.00051551761,"MEAN_MOTION_DOT":0.00014341,"MEAN_MOTION_DDOT":0}]
